{"type": "FeatureCollection", "features": [ {"type": "Feature", "properties": {"norad_id": 35744, "name": "IRIDIUM 33 DEB", "group": "iridium-33-debris", "lat": -55.78815329335725, "lon": -45.04569955278134, "alt_km": 677.9482740958556, "timestamp": "2025-12-23T22:42:33.371091+00:00", "meta": {"OBJECT_NAME": "IRIDIUM 33 DEB", "OBJECT_ID": "1997-051RX", "EPOCH": "2025-12-23T03:22:28.782624", "MEAN_MOTION": 14.71122887, "ECCENTRICITY": 0.00216776, "INCLINATION": 86.3298, "RA_OF_ASC_NODE": 320.7354, "ARG_OF_PERICENTER": 155.7913, "MEAN_ANOMALY": 204.4327, "EPHEMERIS_TYPE": 0, "CLASSIFICATION_TYPE": "U", "NORAD_CAT_ID": 35744, "ELEMENT_SET_NO": 999, "REV_AT_EPOCH": 87484, "BSTAR": 0.0012113531, "MEAN_MOTION_DOT": 7.502e-05, "MEAN_MOTION_DDOT": 0}, "tle": {"line1": "1 35744U 97051RX  25357.14061091  .00007502  00000+0  12114-2 0  9993", "line2": "2 35744  86.3298 320.7354 0021677 155.7913 204.4327 14.71122887874843"}}, "geometry": {"type": "Point", "coordinates": [-45.04569955278134, -55.78815329335725]}}, {"type": "Feature", "properties": {"norad_id": 35797, "name": "IRIDIUM 33 DEB", "group": "iridium-33-debris", "lat": 30.99256631556218, "lon": 142.61657437215914, "alt_km": 609.8666833347606, "timestamp": "2025-12-23T22:42:33.371101+00:00", "meta": {"OBJECT_NAME": "IRIDIUM 33 DEB", "OBJECT_ID": "1997-051SF", "EPOCH": "2025-12-23T04:13:41.927808", "MEAN_MOTION": 14.83019917, "ECCENTRICITY": 0.00147795, "INCLINATION": 86.3362, "RA_OF_ASC_NODE": 325.1762, "ARG_OF_PERICENTER": 114.8894, "MEAN_ANOMALY": 245.3866, "EPHEMERIS_TYPE": 0, "CLASSIFICATION_TYPE": "U", "NORAD_CAT_ID": 35797, "ELEMENT_SET_NO": 999, "REV_AT_EPOCH": 87495, "BSTAR": 0.0018258905, "MEAN_MOTION_DOT": 0.0001491, "MEAN_MOTION_DDOT": 0}, "tle": {"line1": "1 35797U 97051SF  25357.17617972  .00014910  00000+0  18259-2 0  9996", "line2": "2 35797  86.3362 325.1762 0014779 114.8894 245.3866 14.83019917874950"}}, "geometry": {"type": "Point", "coordinates": [142.61657437215914, 30.99256631556218]}}, {"type": "Feature", "properties": {"norad_id": 35806, "name": "IRIDIUM 33 DEB", "group": "iridium-33-debris", "lat": 32.52552921289588, "lon": -166.64427387761782, "alt_km": 702.7643579804353, "timestamp": "2025-12-23T22:42:33.371112+00:00", "meta": {"OBJECT_NAME": "IRIDIUM 33 DEB", "OBJECT_ID": "1997-051SQ", "EPOCH": "2025-12-22T08:08:16.057536", "MEAN_MOTION": 14.57429355, "ECCENTRICITY": 0.00153731, "INCLINATION": 86.3431, "RA_OF_ASC_NODE": 16.4008, "ARG_OF_PERICENTER": 45.7308, "MEAN_ANOMALY": 314.5159, "EPHEMERIS_TYPE": 0, "CLASSIFICATION_TYPE": "U", "NORAD_CAT_ID": 35806, "ELEMENT_SET_NO": 999, "REV_AT_EPOCH": 86464, "BSTAR": 0.0011754226, "MEAN_MOTION_DOT": 5.361e-05, "MEAN_MOTION_DDOT": 0}, "tle": {"line1": "1 35806U 97051SQ  25356.33907474  .00005361  00000+0  11754-2 0  9996", "line2": "2 35806  86.3431  16.4008 0015373  45.7308 314.5159 14.57429355864645"}}, "geometry": {"type": "Point", "coordinates": [-166.64427387761782, 32.52552921289588]}}, {"type": "Feature", "properties": {"norad_id": 35809, "name": "IRIDIUM 33 DEB", "group": "iridium-33-debris", "lat": 6.400714867681208, "lon": 149.83104614491563, "alt_km": 637.9280599786216, "timestamp": "2025-12-23T22:42:33.371123+00:00", "meta": {"OBJECT_NAME": "IRIDIUM 33 DEB", "OBJECT_ID": "1997-051ST", "EPOCH": "2025-12-21T16:13:39.380736", "MEAN_MOTION": 14.75870585, "ECCENTRICITY": 0.00102664, "INCLINATION": 86.3279, "RA_OF_ASC_NODE": 331.2775, "ARG_OF_PERICENTER": 205.8578, "MEAN_ANOMALY": 154.2129, "EPHEMERIS_TYPE": 0, "CLASSIFICATION_TYPE": "U", "NORAD_CAT_ID": 35809, "ELEMENT_SET_NO": 999, "REV_AT_EPOCH": 86939, "BSTAR": 0.0013721853, "MEAN_MOTION_DOT": 9.452e-05, "MEAN_MOTION_DDOT": 0}, "tle": {"line1": "1 35809U 97051ST  25355.67615024  .00009452  00000+0  13722-2 0  9994", "line2": "2 35809  86.3279 331.2775 0010266 205.8578 154.2129 14.75870585869399"}}, "geometry": {"type": "Point", "coordinates": [149.83104614491563, 6.400714867681208]}}, {"type": "Feature", "properties": {"norad_id": 35846, "name": "IRIDIUM 33 DEB", "group": "iridium-33-debris", "lat": 79.24573307647678, "lon": 73.56120834240906, "alt_km": 732.6681123595936, "timestamp": "2025-12-23T22:42:33.371133+00:00", "meta": {"OBJECT_NAME": "IRIDIUM 33 DEB", "OBJECT_ID": "1997-051SW", "EPOCH": "2025-12-20T14:27:58.085568", "MEAN_MOTION": 14.43184351, "ECCENTRICITY": 0.00195294, "INCLINATION": 86.3741, "RA_OF_ASC_NODE": 55.4852, "ARG_OF_PERICENTER": 145.7638, "MEAN_ANOMALY": 214.4826, "EPHEMERIS_TYPE": 0, "CLASSIFICATION_TYPE": "U", "NORAD_CAT_ID": 35846, "ELEMENT_SET_NO": 999, "REV_AT_EPOCH": 71442, "BSTAR": 0.00034498842, "MEAN_MOTION_DOT": 1.181e-05, "MEAN_MOTION_DDOT": 0}, "tle": {"line1": "1 35846U 97051SW  25354.60275562  .00001181  00000+0  34499-3 0  9992", "line2": "2 35846  86.3741  55.4852 0019529 145.7638 214.4826 14.43184351714425"}}, "geometry": {"type": "Point", "coordinates": [73.56120834240906, 79.24573307647678]}}, {"type": "Feature", "properties": {"norad_id": 35848, "name": "IRIDIUM 33 DEB", "group": "iridium-33-debris", "lat": -64.05975991621204, "lon": -161.45759359003668, "alt_km": 640.8178973180766, "timestamp": "2025-12-23T22:42:33.371143+00:00", "meta": {"OBJECT_NAME": "IRIDIUM 33 DEB", "OBJECT_ID": "1997-051SY", "EPOCH": "2025-12-20T18:54:17.008704", "MEAN_MOTION": 14.78786946, "ECCENTRICITY": 0.00088391, "INCLINATION": 86.3889, "RA_OF_ASC_NODE": 12.5039, "ARG_OF_PERICENTER": 160.7491, "MEAN_ANOMALY": 199.4066, "EPHEMERIS_TYPE": 0, "CLASSIFICATION_TYPE": "U", "NORAD_CAT_ID": 35848, "ELEMENT_SET_NO": 999, "REV_AT_EPOCH": 66809, "BSTAR": 0.00088484231, "MEAN_MOTION_DOT": 6.531e-05, "MEAN_MOTION_DDOT": 0}, "tle": {"line1": "1 35848U 97051SY  25354.78769686  .00006531  00000+0  88484-3 0  9995", "line2": "2 35848  86.3889  12.5039 0008839 160.7491 199.4066 14.78786946668092"}}, "geometry": {"type": "Point", "coordinates": [-161.45759359003668, -64.05975991621204]}}, {"type": "Feature", "properties": {"norad_id": 35850, "name": "IRIDIUM 33 DEB", "group": "iridium-33-debris", "lat": -37.32613980579169, "lon": 161.93665712658824, "alt_km": 636.4484520125434, "timestamp": "2025-12-23T22:42:33.371154+00:00", "meta": {"OBJECT_NAME": "IRIDIUM 33 DEB", "OBJECT_ID": "1997-051TA", "EPOCH": "2025-12-22T16:30:11.093760", "MEAN_MOTION": 14.79024497, "ECCENTRICITY": 0.00105589, "INCLINATION": 86.349, "RA_OF_ASC_NODE": 339.7186, "ARG_OF_PERICENTER": 150.1943, "MEAN_ANOMALY": 209.9881, "EPHEMERIS_TYPE": 0, "CLASSIFICATION_TYPE": "U", "NORAD_CAT_ID": 35850, "ELEMENT_SET_NO": 999, "REV_AT_EPOCH": 71504, "BSTAR": 0.001690767, "MEAN_MOTION_DOT": 0.0001254, "MEAN_MOTION_DDOT": 0}, "tle": {"line1": "1 35850U 97051TA  25356.68762840  .00012540  00000+0  16908-2 0  9992", "line2": "2 35850  86.3490 339.7186 0010558 150.1943 209.9881 14.79024497715043"}}, "geometry": {"type": "Point", "coordinates": [161.93665712658824, -37.32613980579169]}}, {"type": "Feature", "properties": {"norad_id": 35915, "name": "IRIDIUM 33 DEB", "group": "iridium-33-debris", "lat": -54.7909203928885, "lon": 163.03320939202183, "alt_km": 633.1042432959421, "timestamp": "2025-12-23T22:42:33.371164+00:00", "meta": {"OBJECT_NAME": "IRIDIUM 33 DEB", "OBJECT_ID": "1997-051TY", "EPOCH": "2025-12-22T16:27:49.238784", "MEAN_MOTION": 14.80964903, "ECCENTRICITY": 0.00122455, "INCLINATION": 86.3447, "RA_OF_ASC_NODE": 338.4114, "ARG_OF_PERICENTER": 150.5648, "MEAN_ANOMALY": 209.6266, "EPHEMERIS_TYPE": 0, "CLASSIFICATION_TYPE": "U", "NORAD_CAT_ID": 35915, "ELEMENT_SET_NO": 999, "REV_AT_EPOCH": 8233, "BSTAR": 0.0017914035, "MEAN_MOTION_DOT": 0.00013917, "MEAN_MOTION_DDOT": 0}, "tle": {"line1": "1 35915U 97051TY  25356.68598656  .00013917  00000+0  17914-2 0  9993", "line2": "2 35915  86.3447 338.4114 0012245 150.5648 209.6266 14.80964903 82335"}}, "geometry": {"type": "Point", "coordinates": [163.03320939202183, -54.7909203928885]}}, {"type": "Feature", "properties": {"norad_id": 35918, "name": "IRIDIUM 33 DEB", "group": "iridium-33-debris", "lat": -81.07504323671657, "lon": 47.37719924843154, "alt_km": 745.1800161170695, "timestamp": "2025-12-23T22:42:33.371175+00:00", "meta": {"OBJECT_NAME": "IRIDIUM 33 DEB", "OBJECT_ID": "1997-051UB", "EPOCH": "2025-12-21T23:54:39.299616", "MEAN_MOTION": 14.51316064, "ECCENTRICITY": 0.00283531, "INCLINATION": 86.4007, "RA_OF_ASC_NODE": 71.8428, "ARG_OF_PERICENTER": 139.9313, "MEAN_ANOMALY": 36.6776, "EPHEMERIS_TYPE": 0, "CLASSIFICATION_TYPE": "U", "NORAD_CAT_ID": 35918, "ELEMENT_SET_NO": 999, "REV_AT_EPOCH": 85341, "BSTAR": 0.0010087196, "MEAN_MOTION_DOT": 4.056e-05, "MEAN_MOTION_DDOT": 0}, "tle": {"line1": "1 35918U 97051UB  25355.99628819  .00004056  00000+0  10087-2 0  9992", "line2": "2 35918  86.4007  71.8428 0028353 139.9313  36.6776 14.51316064853410"}}, "geometry": {"type": "Point", "coordinates": [47.37719924843154, -81.07504323671657]}}, {"type": "Feature", "properties": {"norad_id": 35929, "name": "IRIDIUM 33 DEB", "group": "iridium-33-debris", "lat": -57.23388840362782, "lon": -58.403919672141626, "alt_km": 558.0969932808148, "timestamp": "2025-12-23T22:42:33.371185+00:00", "meta": {"OBJECT_NAME": "IRIDIUM 33 DEB", "OBJECT_ID": "1997-051UN", "EPOCH": "2025-12-19T03:54:47.819808", "MEAN_MOTION": 15.02824577, "ECCENTRICITY": 0.00169983, "INCLINATION": 86.3333, "RA_OF_ASC_NODE": 309.5832, "ARG_OF_PERICENTER": 16.9141, "MEAN_ANOMALY": 343.2656, "EPHEMERIS_TYPE": 0, "CLASSIFICATION_TYPE": "U", "NORAD_CAT_ID": 35929, "ELEMENT_SET_NO": 999, "REV_AT_EPOCH": 87876, "BSTAR": 0.0020745591, "MEAN_MOTION_DOT": 0.00027961, "MEAN_MOTION_DDOT": 0}, "tle": {"line1": "1 35929U 97051UN  25353.16305347  .00027961  00000+0  20746-2 0  9992", "line2": "2 35929  86.3333 309.5832 0016998  16.9141 343.2656 15.02824577878767"}}, "geometry": {"type": "Point", "coordinates": [-58.403919672141626, -57.23388840362782]}}]}